H1 CPF 01  gfz 2022 04 02 00  5921 terrasarx 
H2 0702601  6201 31698    2022 04 02 00 59 42 2022 04 07 00 00 42   120 1 1  0 0 0
H9
10 0 59673  29502.000000  0   -1816120.227   2135292.534   6281896.285
10 0 59673  29622.000000  0   -1053521.945   1712868.188   6577810.421
10 0 59673  29742.000000  0    -280312.791   1247115.304   6758128.448
10 0 59673  29862.000000  0     489327.415    746103.004   6819703.039
10 0 59673  29982.000000  0    1241433.577    218757.285   6761459.280
10 0 59673  30102.000000  0    1962507.400   -325297.249   6584412.249
10 0 59673  30222.000000  0    2639758.809   -875912.421   6291651.295
10 0 59673  30342.000000  0    3261333.436  -1422604.833   5888290.257
10 0 59673  30462.000000  0    3816523.385  -1954755.005   5381383.876
10 0 59673  30582.000000  0    4295955.763  -2461813.802   4779809.516
10 0 59673  30702.000000  0    4691756.280  -2933512.381   4094118.029
10 0 59673  30822.000000  0    4997685.903  -3360072.832   3336353.476
10 0 59673  30942.000000  0    5209246.527  -3732413.193   2519842.446
10 0 59673  31062.000000  0    5323751.220  -4042341.851   1658957.306
10 0 59673  31182.000000  0    5340357.995  -4282737.836    768859.176
10 0 59673  31302.000000  0    5260067.010  -4447711.305   -134775.749
10 0 59673  31422.000000  0    5085680.423  -4532740.871  -1036040.602
10 0 59673  31542.000000  0    4821725.313  -4534782.917  -1919087.071
10 0 59673  31662.000000  0    4474341.999  -4452350.722  -2768412.150
10 0 59673  31782.000000  0    4051141.103  -4285561.601  -3569135.819
10 0 59673  31902.000000  0    3561033.557  -4036151.320  -4307264.377
10 0 59673  32022.000000  0    3014038.108  -3707455.771  -4969933.592
10 0 59673  32142.000000  0    2421071.169  -3304361.564  -5545627.450
10 0 59673  32262.000000  0    1793725.627  -2833227.465  -6024368.447
10 0 59673  32382.000000  0    1144043.760  -2301780.091  -6397880.273
10 0 59673  32502.000000  0     484286.181  -1718983.494  -6659721.449
10 0 59673  32622.000000  0    -173297.383  -1094885.445  -6805385.550
10 0 59673  32742.000000  0    -816690.742   -440445.055  -6832369.297
10 0 59673  32862.000000  0   -1434325.156    232655.923  -6740210.436
10 0 59673  32982.000000  0   -2015282.734    912216.378  -6530494.184
10 0 59673  33102.000000  0   -2549484.843   1585731.342  -6206828.845
10 0 59673  33222.000000  0   -3027863.902   2240616.378  -5774790.631
10 0 59673  33342.000000  0   -3442517.323   2864438.792  -5241838.485
10 0 59673  33462.000000  0   -3786841.402   3445152.650  -4617197.297
10 0 59673  33582.000000  0   -4055641.808   3971332.483  -3911708.499
10 0 59673  33702.000000  0   -4245216.398   4432400.793  -3137650.628
10 0 59673  33822.000000  0   -4353409.919   4818845.341  -2308533.304
10 0 59673  33942.000000  0   -4379639.949   5122420.359  -1438865.341
10 0 59673  34062.000000  0   -4324892.279   5336327.862   -543901.328
10 0 59673  34182.000000  0   -4191683.773   5455373.327    360631.217
10 0 59673  34302.000000  0   -3983993.416   5476089.247   1258814.677
10 0 59673  34422.000000  0   -3707164.218   5396826.462   2134831.094
10 0 59673  34542.000000  0   -3367776.429   5217806.548   2973251.270
10 0 59673  34662.000000  0   -2973495.011   4941135.765   3759314.046
10 0 59673  34782.000000  0   -2532898.254   4570781.873   4479190.776
10 0 59673  34902.000000  0   -2055290.666   4112513.707   5120231.431
10 0 59673  35022.000000  0   -1550505.206   3573804.851   5671186.914
10 0 59673  35142.000000  0   -1028698.796   2963704.176   6122403.369
10 0 59673  35262.000000  0    -500146.878   2292676.594   6465985.513
10 0 59673  35382.000000  0      24958.308   1572418.895   6695927.857
10 0 59673  35502.000000  0     536703.685    815652.985   6808214.723
10 0 59673  35622.000000  0    1025641.812     35899.924   6800885.035
10 0 59673  35742.000000  0    1482964.123   -752760.492   6674064.795
10 0 59673  35862.000000  0    1900659.153  -1535943.592   6429965.743
10 0 59673  35982.000000  0    2271653.125  -2299221.303   6072849.576
10 0 59673  36102.000000  0    2589931.263  -3028388.838   5608958.941
10 0 59673  36222.000000  0    2850637.391  -3709731.327   5046413.689
10 0 59673  36342.000000  0    3050149.486  -4330285.276   4395074.503
10 0 59673  36462.000000  0    3186131.279  -4878091.325   3666375.236
10 0 59673  36582.000000  0    3257557.215  -5342431.529   2873124.159
10 0 59673  36702.000000  0    3264710.678  -5714046.508   2029278.774
10 0 59673  36822.000000  0    3209154.095  -5985326.630   1149696.767
10 0 59673  36942.000000  0    3093672.837  -6150471.417    249869.037
10 0 59673  37062.000000  0    2922194.726  -6205615.317   -654359.568
10 0 59673  37182.000000  0    2699685.018  -6148915.677  -1547079.623
10 0 59673  37302.000000  0    2432019.688  -5980597.104  -2412605.506
10 0 59673  37422.000000  0    2125842.450  -5702956.232  -3235757.779
10 0 59673  37542.000000  0    1788406.242  -5320324.236  -4002134.978
10 0 59673  37662.000000  0    1427405.947  -4838987.365  -4698365.178
10 0 59673  37782.000000  0    1050807.697  -4267071.743  -5312334.619
10 0 59673  37902.000000  0     666677.316  -3614395.877  -5833391.224
10 0 59673  38022.000000  0     283011.495  -2892293.168  -6252519.667
10 0 59673  38142.000000  0     -92424.585  -2113409.300  -6562485.850
10 0 59673  38262.000000  0    -452250.027  -1291478.577  -6757950.597
10 0 59673  38382.000000  0    -789608.571   -441083.037  -6835552.508
10 0 59673  38502.000000  0   -1098294.969    422602.601  -6793959.104
10 0 59673  38622.000000  0   -1372866.237   1284074.941  -6633886.192
10 0 59673  38742.000000  0   -1608735.355   2127773.195  -6358086.731
10 0 59673  38862.000000  0   -1802246.504   2938353.135  -5971309.229
10 0 59673  38982.000000  0   -1950731.924   3700962.679  -5480225.594
10 0 59673  39102.000000  0   -2052548.096   4401512.953  -4893326.857
10 0 59673  39222.000000  0   -2107091.792   5026941.917  -4220788.004
10 0 59673  39342.000000  0   -2114794.511   5565464.104  -3474300.793
10 0 59673  39462.000000  0   -2077094.722   6006800.383  -2666878.268
10 0 59673  39582.000000  0   -1996388.664   6342384.546  -1812633.819
10 0 59673  39702.000000  0   -1875961.128   6565540.817   -926535.395
10 0 59673  39822.000000  0   -1719896.751   6671625.902    -24141.695
10 0 59673  39942.000000  0   -1532973.872   6658135.218    878675.598
10 0 59673  40062.000000  0   -1320543.337   6524765.927   1766022.014
10 0 59673  40182.000000  0   -1088394.585   6273431.167   2622270.664
10 0 59673  40302.000000  0    -842613.668   5908230.450   3432344.584
10 0 59673  40422.000000  0    -589437.111   5435378.101   4181987.561
10 0 59673  40542.000000  0    -335105.390   4863090.952   4858020.371
10 0 59673  40662.000000  0     -85717.420   4201432.668   5448574.414
10 0 59673  40782.000000  0     152908.194   3462127.853   5943295.091
10 0 59673  40902.000000  0     375361.774   2658346.374   6333520.586
10 0 59673  41022.000000  0     576759.611   1804461.594   6612427.165
10 0 59673  41142.000000  0     752846.960    915789.194   6775142.711
10 0 59673  41262.000000  0     900084.892      8310.334   6818825.858
10 0 59673  41382.000000  0    1015719.865   -901614.439   6742712.711
10 0 59673  41502.000000  0    1097834.812  -1797539.863   6548130.436
10 0 59673  41622.000000  0    1145381.038  -2663232.778   6238475.948
10 0 59673  41742.000000  0    1158190.361  -3482967.708   5819160.596
10 0 59673  41862.000000  0    1136966.538  -4241814.892   5297519.321
10 0 59673  41982.000000  0    1083258.269  -4925914.728   4682687.886
10 0 59673  42102.000000  0     999413.094  -5522737.262   3985449.989
10 0 59673  42222.000000  0     888512.735  -6021321.900   3218052.350
10 0 59673  42342.000000  0     754291.393  -6412488.792   2393990.156
10 0 59673  42462.000000  0     601037.711  -6689017.236   1527768.285
10 0 59673  42582.000000  0     433483.702  -6845787.471    634642.394
10 0 59673  42702.000000  0     256683.063  -6879883.551   -269657.079
10 0 59673  42822.000000  0      75881.122  -6790649.234  -1169212.921
10 0 59673  42942.000000  0    -103618.329  -6579696.524  -2048210.498
10 0 59673  43062.000000  0    -276586.366  -6250869.828  -2891222.395
10 0 59673  43182.000000  0    -437999.554  -5810166.961  -3683484.171
10 0 59673  43302.000000  0    -583164.746  -5265617.886  -4411155.513
10 0 59673  43422.000000  0    -707834.564  -4627124.725  -5061559.794
10 0 59673  43542.000000  0    -808311.097  -3906269.861  -5623398.613
10 0 59673  43662.000000  0    -881535.512  -3116096.077  -6086939.315
10 0 59673  43782.000000  0    -925161.923  -2270863.792  -6444173.039
10 0 59673  43902.000000  0    -937614.504  -1385790.411  -6688941.485
10 0 59673  44022.000000  0    -918127.238   -476777.592  -6817032.471
10 0 59673  44142.000000  0    -866765.482    439870.592  -6826244.692
10 0 59673  44262.000000  0    -784428.618   1347733.267  -6716420.231
10 0 59673  44382.000000  0    -672834.743   2230559.174  -6489446.937
10 0 59673  44502.000000  0    -534487.465   3072550.293  -6149230.025
10 0 59673  44622.000000  0    -372624.372   3858640.710  -5701633.440
10 0 59673  44742.000000  0    -191148.022   4574765.387  -5154388.411
10 0 59673  44862.000000  0       5458.955   5208114.152  -4516971.575
10 0 59673  44982.000000  0     212233.431   5747368.049  -3800451.808
10 0 59673  45102.000000  0     423844.669   6182911.397  -3017306.678
10 0 59673  45222.000000  0     634718.175   6507014.926  -2181211.617
10 0 59673  45342.000000  0     839167.994   6713986.117  -1306803.891
10 0 59673  45462.000000  0    1031534.353   6800281.363   -409424.858
10 0 59673  45582.000000  0    1206323.363   6764576.427    495154.223
10 0 59673  45702.000000  0    1358344.910   6607791.724   1391016.984
10 0 59673  45822.000000  0    1482844.250   6333072.836   2262389.774
10 0 59673  45942.000000  0    1575624.840   5945727.507   3093927.417
99
